NAYIF-1 (EO-88)         
1 42017U 17008BX  20069.18049518  .00001289  00000-0  52608-4 0  9998
2 42017  97.3708 138.1705 0005097 329.7889  30.3055 15.26204248170257
MAX VALIER SAT          
1 42778U 17036P   20069.24731001  .00000765  00000-0  35985-4 0  9992
2 42778  97.3188 125.5918 0012666  22.9298 337.2501 15.22437422150481
RADFXSAT (FOX-1B)       
1 43017U 17073E   20069.38839031  .00000764  00000-0  64602-4 0  9994
2 43017  97.7262 345.4706 0257873  16.6821 344.2678 14.78826778124374
FOX-1D (AO-92)          
1 43137U 18004AC  20069.42193395  .00000878  00000-0  39248-4 0  9997
2 43137  97.4557 141.2246 0010448  54.1438 306.0768 15.23925313119813
ES'HAIL 2               
1 43700U 18090A   20069.55882729  .00000127  00000-0  00000-0 0  9995
2 43700   0.0228 115.8108 0002512 262.9102  15.9538  1.00273771  4704
FOX-1CLIFF (AO-95)      
1 43770U 18099N   20069.10902671 -.00000124  00000-0 -61246-5 0  9994
2 43770  97.7155 142.1977 0014970 166.6489 193.5131 14.94923759 68920
ITASAT 1                
1 43786U 18099AE  20069.32976328  .00000152  00000-0  19016-4 0  9991
2 43786  97.7166 142.7624 0015831 160.4349 199.7483 14.95269647 68971
JY1SAT (JO-97)          
1 43803U 18099AX  20069.48950782  .00000644  00000-0  63305-4 0  9990
2 43803  97.7130 142.7635 0015830 159.6931 200.4923 14.95436458 68997
PSAT2 (NO-104)          
1 44354U 19036R   20069.36143196  .00008344  00000-0  12246-3 0  9996
2 44354  28.5330 317.0826 0372262 323.4829  34.0907 15.01412987 38757
BRICSAT2 (NO-103)       
1 44355U 19036S   20068.87929809  .00014833  00000-0  21509-3 0  9997
2 44355  28.5329 316.1010 0358122 325.0946  32.6641 15.04941462 38711
JAISAT-1                
1 44419U 19038F   20069.14151638  .00000669  00000-0  41835-4 0  9995
2 44419  97.5265  32.0007 0023156 114.5181 245.8467 15.12605362 37432
DUCHIFAT-3              
1 44854U 19089C   20069.11363677  .00000343  00000-0  34255-4 0  9996
2 44854  36.9694 331.3072 0009452 325.5478  34.4644 14.98988885 13239
HUSKYSAT-1              
1 45119U 19071J   20069.35793090  .00001380  00000-0  53920-4 0  9996
2 45119  51.6435 126.8702 0012840  54.6966 305.5214 15.33200877  5767
